QIANFAN-57              
1 62787U 25016C   25312.45928330  .00000056  00000+0  67628-4 0  9994
2 62787  88.9756 106.7356 0001022 115.6312 244.4945 13.50977779 42572
QIANFAN-58              
1 62788U 25016D   25312.50452931  .00000072  00000+0  91816-4 0  9994
2 62788  88.9726 106.5731 0015521  83.8311 276.4607 13.50977588 42623
QIANFAN-59              
1 62789U 25016E   25312.45514920  .00000064  00000+0  80376-4 0  9996
2 62789  88.9749 106.6437 0015928  87.3122 272.9852 13.50976998 42619
QIANFAN-60              
1 62790U 25016F   25312.41417248  .00000051  00000+0  60619-4 0  9993
2 62790  88.9730 106.6260 0017438  84.1435 276.1704 13.50973847 42594
QIANFAN-61              
1 62791U 25016G   25312.44689081  .00000054  00000+0  64555-4 0  9999
2 62791  88.9797 106.7622 0016377  83.5453 276.7562 13.50977243 42610
QIANFAN-62              
1 62792U 25016H   25312.45114507  .00000044  00000+0  49825-4 0  9999
2 62792  88.9744 106.6487 0017755  83.7523 276.5650 13.50980793 42601
QIANFAN-63              
1 62793U 25016J   25312.47578326  .00000044  00000+0  48633-4 0  9991
2 62793  88.9751 106.5954 0017837  88.5395 271.7799 13.50973954 42645
QIANFAN-64              
1 62794U 25016K   25312.44282001  .00000047  00000+0  53470-4 0  9999
2 62794  88.9737 106.5775 0015736  82.4162 277.8776 13.50975775 42636
